{
  "type": "FeatureCollection",
  "features": [
    {
      "type": "Feature",
      "properties": {
        "norad_id": 58701,
        "name": "TIANMU-1 16",
        "group": "weather",
        "lat": -67.13392205790656,
        "lon": -17.809564306539627,
        "alt_km": 496.26759983626835,
        "timestamp": "2025-12-25T11:37:44.065391+00:00",
        "meta_object_name": "TIANMU-1 16",
        "meta_object_id": "2024-004B",
        "meta_epoch": "2025-12-25T04:14:31.905888",
        "meta_mean_motion": 15.24597249,
        "meta_eccentricity": 0.0004415,
        "meta_inclination": 97.4569,
        "meta_ra_of_asc_node": 179.9785,
        "meta_arg_of_pericenter": 239.2476,
        "meta_mean_anomaly": 120.8327,
        "meta_ephemeris_type": 0,
        "meta_classification_type": "U",
        "meta_norad_cat_id": 58701,
        "meta_element_set_no": 999,
        "meta_rev_at_epoch": 10924,
        "meta_bstar": 0.00032238,
        "meta_mean_motion_dot": 7.88e-05,
        "meta_mean_motion_ddot": 0,
        "tle_line1": "1 58701U 24004B   25359.17675817  .00007880  00000+0  32238-3 0  9990",
        "tle_line2": "2 58701  97.4569 179.9785 0004415 239.2476 120.8327 15.24597249109243"
      },
      "geometry": {
        "type": "Point",
        "coordinates": [
          -17.809564306539627,
          -67.13392205790656
        ]
      }
    },
    {
      "type": "Feature",
      "properties": {
        "norad_id": 58702,
        "name": "TIANMU-1 17",
        "group": "weather",
        "lat": -25.080094753461193,
        "lon": -175.78263292619954,
        "alt_km": 497.7900868242641,
        "timestamp": "2025-12-25T11:37:44.065401+00:00",
        "meta_object_name": "TIANMU-1 17",
        "meta_object_id": "2024-004C",
        "meta_epoch": "2025-12-25T03:51:50.235840",
        "meta_mean_motion": 15.24639804,
        "meta_eccentricity": 0.0003577,
        "meta_inclination": 97.4602,
        "meta_ra_of_asc_node": 180.3792,
        "meta_arg_of_pericenter": 240.1974,
        "meta_mean_anomaly": 119.8908,
        "meta_ephemeris_type": 0,
        "meta_classification_type": "U",
        "meta_norad_cat_id": 58702,
        "meta_element_set_no": 999,
        "meta_rev_at_epoch": 10923,
        "meta_bstar": 0.00029635,
        "meta_mean_motion_dot": 7.246e-05,
        "meta_mean_motion_ddot": 0,
        "tle_line1": "1 58702U 24004C   25359.16099810  .00007246  00000+0  29635-3 0  9996",
        "tle_line2": "2 58702  97.4602 180.3792 0003577 240.1974 119.8908 15.24639804109234"
      },
      "geometry": {
        "type": "Point",
        "coordinates": [
          -175.78263292619954,
          -25.080094753461193
        ]
      }
    },
    {
      "type": "Feature",
      "properties": {
        "norad_id": 58703,
        "name": "TIANMU-1 18",
        "group": "weather",
        "lat": 64.50291349371645,
        "lon": 164.94765187552863,
        "alt_km": 487.65250374752486,
        "timestamp": "2025-12-25T11:37:44.065411+00:00",
        "meta_object_name": "TIANMU-1 18",
        "meta_object_id": "2024-004D",
        "meta_epoch": "2025-12-25T05:02:29.818176",
        "meta_mean_motion": 15.24623111,
        "meta_eccentricity": 0.0002972,
        "meta_inclination": 97.462,
        "meta_ra_of_asc_node": 180.6261,
        "meta_arg_of_pericenter": 236.6291,
        "meta_mean_anomaly": 123.4663,
        "meta_ephemeris_type": 0,
        "meta_classification_type": "U",
        "meta_norad_cat_id": 58703,
        "meta_element_set_no": 999,
        "meta_rev_at_epoch": 10924,
        "meta_bstar": 0.00029848,
        "meta_mean_motion_dot": 7.294e-05,
        "meta_mean_motion_ddot": 0,
        "tle_line1": "1 58703U 24004D   25359.21006734  .00007294  00000+0  29848-3 0  9995",
        "tle_line2": "2 58703  97.4620 180.6261 0002972 236.6291 123.4663 15.24623111109243"
      },
      "geometry": {
        "type": "Point",
        "coordinates": [
          164.94765187552863,
          64.50291349371645
        ]
      }
    },
    {
      "type": "Feature",
      "properties": {
        "norad_id": 58990,
        "name": "INSAT-3DS",
        "group": "weather",
        "lat": -0.062115830832831447,
        "lon": -9.206095719368813,
        "alt_km": 35784.932567422286,
        "timestamp": "2025-12-25T11:37:44.065423+00:00",
        "meta_object_name": "INSAT-3DS",
        "meta_object_id": "2024-033A",
        "meta_epoch": "2025-12-24T23:45:39.809376",
        "meta_mean_motion": 1.00271318,
        "meta_eccentricity": 0.0001255,
        "meta_inclination": 0.0601,
        "meta_ra_of_asc_node": 99.644,
        "meta_arg_of_pericenter": 175.3991,
        "meta_mean_anomaly": 257.2391,
        "meta_ephemeris_type": 0,
        "meta_classification_type": "U",
        "meta_norad_cat_id": 58990,
        "meta_element_set_no": 999,
        "meta_rev_at_epoch": 4532,
        "meta_bstar": 0,
        "meta_mean_motion_dot": -1.35e-06,
        "meta_mean_motion_ddot": 0,
        "tle_line1": "1 58990U 24033A   25358.99004409 -.00000135  00000+0  00000+0 0  9999",
        "tle_line2": "2 58990   0.0601  99.6440 0001255 175.3991 257.2391  1.00271318 45326"
      },
      "geometry": {
        "type": "Point",
        "coordinates": [
          -9.206095719368813,
          -0.062115830832831447
        ]
      }
    },
    {
      "type": "Feature",
      "properties": {
        "norad_id": 59051,
        "name": "METEOR-M2 4",
        "group": "weather",
        "lat": -60.6035067965276,
        "lon": 120.46505798845219,
        "alt_km": 823.4355054460311,
        "timestamp": "2025-12-25T11:37:44.065434+00:00",
        "meta_object_name": "METEOR-M2 4",
        "meta_object_id": "2024-039A",
        "meta_epoch": "2025-12-25T03:44:32.186976",
        "meta_mean_motion": 14.22403141,
        "meta_eccentricity": 0.000639,
        "meta_inclination": 98.6784,
        "meta_ra_of_asc_node": 315.8711,
        "meta_arg_of_pericenter": 321.1725,
        "meta_mean_anomaly": 38.8993,
        "meta_ephemeris_type": 0,
        "meta_classification_type": "U",
        "meta_norad_cat_id": 59051,
        "meta_element_set_no": 999,
        "meta_rev_at_epoch": 9452,
        "meta_bstar": 3.9876e-05,
        "meta_mean_motion_dot": 4.5e-07,
        "meta_mean_motion_ddot": 0,
        "tle_line1": "1 59051U 24039A   25359.15592809  .00000045  00000+0  39876-4 0  9996",
        "tle_line2": "2 59051  98.6784 315.8711 0006390 321.1725  38.8993 14.22403141 94521"
      },
      "geometry": {
        "type": "Point",
        "coordinates": [
          120.46505798845219,
          -60.6035067965276
        ]
      }
    },
    {
      "type": "Feature",
      "properties": {
        "norad_id": 60133,
        "name": "GOES 19",
        "group": "weather",
        "lat": 0.00032014264969525494,
        "lon": -166.52302592306486,
        "alt_km": 35788.937947830505,
        "timestamp": "2025-12-25T11:37:44.065445+00:00",
        "meta_object_name": "GOES 19",
        "meta_object_id": "2024-119A",
        "meta_epoch": "2025-12-25T04:31:42.625056",
        "meta_mean_motion": 1.0027105,
        "meta_eccentricity": 0.0001037,
        "meta_inclination": 0.0152,
        "meta_ra_of_asc_node": 183.0311,
        "meta_arg_of_pericenter": 137.5029,
        "meta_mean_anomaly": 126.1624,
        "meta_ephemeris_type": 0,
        "meta_classification_type": "U",
        "meta_norad_cat_id": 60133,
        "meta_element_set_no": 999,
        "meta_rev_at_epoch": 521,
        "meta_bstar": 0,
        "meta_mean_motion_dot": -2.27e-06,
        "meta_mean_motion_ddot": 0,
        "tle_line1": "1 60133U 24119A   25359.18868779 -.00000227  00000+0  00000+0 0  9998",
        "tle_line2": "2 60133   0.0152 183.0311 0001037 137.5029 126.1624  1.00271050  5214"
      },
      "geometry": {
        "type": "Point",
        "coordinates": [
          -166.52302592306486,
          0.00032014264969525494
        ]
      }
    },
    {
      "type": "Feature",
      "properties": {
        "norad_id": 65815,
        "name": "FENGYUN 3H",
        "group": "weather",
        "lat": 6.142324323097078,
        "lon": -62.1406849562749,
        "alt_km": 827.8656166995424,
        "timestamp": "2025-12-25T11:37:44.065458+00:00",
        "meta_object_name": "FENGYUN 3H",
        "meta_object_id": "2025-219A",
        "meta_epoch": "2025-12-25T03:08:37.326048",
        "meta_mean_motion": 14.1990789,
        "meta_eccentricity": 8.43e-05,
        "meta_inclination": 98.6601,
        "meta_ra_of_asc_node": 298.4532,
        "meta_arg_of_pericenter": 108.8582,
        "meta_mean_anomaly": 251.2686,
        "meta_ephemeris_type": 0,
        "meta_classification_type": "U",
        "meta_norad_cat_id": 65815,
        "meta_element_set_no": 999,
        "meta_rev_at_epoch": 1268,
        "meta_bstar": 6.5638e-05,
        "meta_mean_motion_dot": 9.6e-07,
        "meta_mean_motion_ddot": 0,
        "tle_line1": "1 65815U 25219A   25359.13098757  .00000096  00000+0  65638-4 0  9994",
        "tle_line2": "2 65815  98.6601 298.4532 0000843 108.8582 251.2686 14.19907890 12682"
      },
      "geometry": {
        "type": "Point",
        "coordinates": [
          -62.1406849562749,
          6.142324323097078
        ]
      }
    }
  ]
}